{
  "links" : {
    "next" : "https://api.nasa.gov/neo/rest/v1/feed?start_date=2010-05-16&end_date=2010-05-16&detailed=true&api_key=t0TVs3DtDT2H8Oy2Zy8m2eVrNsAVKAexjcZXUckd",
    "prev" : "https://api.nasa.gov/neo/rest/v1/feed?start_date=2010-05-14&end_date=2010-05-14&detailed=true&api_key=t0TVs3DtDT2H8Oy2Zy8m2eVrNsAVKAexjcZXUckd",
    "self" : "https://api.nasa.gov/neo/rest/v1/feed?start_date=2010-05-15&end_date=2010-05-15&detailed=true&api_key=t0TVs3DtDT2H8Oy2Zy8m2eVrNsAVKAexjcZXUckd"
  },
  "element_count" : 8,
  "near_earth_objects" : {
    "2010-05-15" : [ {
      "links" : {
        "self" : "https://api.nasa.gov/neo/rest/v1/neo/3576728?api_key=t0TVs3DtDT2H8Oy2Zy8m2eVrNsAVKAexjcZXUckd"
      },
      "neo_reference_id" : "3576728",
      "name" : "(2011 QJ21)",
      "nasa_jpl_url" : "http://ssd.jpl.nasa.gov/sbdb.cgi?sstr=3576728",
      "absolute_magnitude_h" : 24.5,
      "estimated_diameter" : {
        "kilometers" : {
          "estimated_diameter_min" : 0.0334622374,
          "estimated_diameter_max" : 0.0748238376
        },
        "meters" : {
          "estimated_diameter_min" : 33.4622374455,
          "estimated_diameter_max" : 74.8238376074
        },
        "miles" : {
          "estimated_diameter_min" : 0.0207924639,
          "estimated_diameter_max" : 0.0464933628
        },
        "feet" : {
          "estimated_diameter_min" : 109.7842471007,
          "estimated_diameter_max" : 245.4850393757
        }
      },
      "is_potentially_hazardous_asteroid" : false,
      "close_approach_data" : [ {
        "close_approach_date" : "2010-05-15",
        "epoch_date_close_approach" : 1273906800000,
        "relative_velocity" : {
          "kilometers_per_second" : "13.5276202071",
          "kilometers_per_hour" : "48699.4327455218",
          "miles_per_hour" : "30259.9336412383"
        },
        "miss_distance" : {
          "astronomical" : "0.4430474466",
          "lunar" : "172.3454589844",
          "kilometers" : "66278952",
          "miles" : "41183832"
        },
        "orbiting_body" : "Earth"
      } ],
      "orbital_data" : {
        "orbit_id" : "12",
        "orbit_determination_date" : "2017-04-06 08:52:56",
        "orbit_uncertainty" : "7",
        "minimum_orbit_intersection" : ".0322413",
        "jupiter_tisserand_invariant" : "5.697",
        "epoch_osculation" : "2458000.5",
        "eccentricity" : ".3825488704106488",
        "semi_major_axis" : "1.059671391288651",
        "inclination" : "19.40646055090048",
        "ascending_node_longitude" : "150.1939413215264",
        "orbital_period" : "398.4329446975307",
        "perihelion_distance" : ".6542952975446968",
        "perihelion_argument" : "66.89756582972232",
        "aphelion_distance" : "1.465047485032605",
        "perihelion_time" : "2458112.336766310627",
        "mean_anomaly" : "258.9510370373866",
        "mean_motion" : ".9035397418586786",
        "equinox" : "J2000"
      }
    }, {
      "links" : {
        "self" : "https://api.nasa.gov/neo/rest/v1/neo/3655558?api_key=t0TVs3DtDT2H8Oy2Zy8m2eVrNsAVKAexjcZXUckd"
      },
      "neo_reference_id" : "3655558",
      "name" : "(2013 YH48)",
      "nasa_jpl_url" : "http://ssd.jpl.nasa.gov/sbdb.cgi?sstr=3655558",
      "absolute_magnitude_h" : 23.3,
      "estimated_diameter" : {
        "kilometers" : {
          "estimated_diameter_min" : 0.058150704,
          "estimated_diameter_max" : 0.130028927
        },
        "meters" : {
          "estimated_diameter_min" : 58.1507039646,
          "estimated_diameter_max" : 130.0289270043
        },
        "miles" : {
          "estimated_diameter_min" : 0.0361331611,
          "estimated_diameter_max" : 0.0807962044
        },
        "feet" : {
          "estimated_diameter_min" : 190.7831555951,
          "estimated_diameter_max" : 426.6041048727
        }
      },
      "is_potentially_hazardous_asteroid" : false,
      "close_approach_data" : [ {
        "close_approach_date" : "2010-05-15",
        "epoch_date_close_approach" : 1273906800000,
        "relative_velocity" : {
          "kilometers_per_second" : "8.0396189826",
          "kilometers_per_hour" : "28942.6283372665",
          "miles_per_hour" : "17983.8237021199"
        },
        "miss_distance" : {
          "astronomical" : "0.1139750047",
          "lunar" : "44.3362770081",
          "kilometers" : "17050418",
          "miles" : "10594639"
        },
        "orbiting_body" : "Earth"
      } ],
      "orbital_data" : {
        "orbit_id" : "6",
        "orbit_determination_date" : "2017-04-06 08:43:06",
        "orbit_uncertainty" : "8",
        "minimum_orbit_intersection" : ".0771494",
        "jupiter_tisserand_invariant" : "5.933",
        "epoch_osculation" : "2456656.5",
        "eccentricity" : ".2286795217997765",
        "semi_major_axis" : "1.023824788828723",
        "inclination" : "10.1016196501955",
        "ascending_node_longitude" : "257.6168811896833",
        "orbital_period" : "378.3875927851148",
        "perihelion_distance" : ".7896970257126138",
        "perihelion_argument" : "53.77157240760092",
        "aphelion_distance" : "1.257952551944833",
        "perihelion_time" : "2456524.822281635965",
        "mean_anomaly" : "125.278892635291",
        "mean_motion" : ".9514054024610763",
        "equinox" : "J2000"
      }
    } ]
  }
}